EUTELSAT 8 WEST B       
1 40875U 15039B   26014.08743840 -.00000046  00000+0  00000+0 0  9998
2 40875   0.0647 351.5363 0004238 299.9042 205.6126  1.00272553 38111
EUTELSAT 9B             
1 41310U 16005A   26013.80565001  .00000080  00000+0  00000+0 0  9994
2 41310   0.0290  55.0898 0004378 235.4240 121.7720  1.00271074 36561
EUTELSAT 65 WEST A      
1 41382U 16014A   26014.16545470 -.00000257  00000+0  00000+0 0  9998
2 41382   0.0952 297.5778 0002114   3.8568 166.5425  1.00269780 35997
EUTELSAT 117 WEST B     
1 41589U 16038B   26012.45809241  .00000006  00000+0  00000+0 0  9993
2 41589   0.0069 160.3037 0000249 110.4100 249.1636  1.00274176 35104
EUTELSAT 172B           
1 42741U 17029B   26013.68586449  .00000013  00000+0  00000+0 0  9991
2 42741   0.0295 124.4773 0000196 311.5335  96.0423  1.00271798 32184
EUTELSAT 7C             
1 44334U 19034B   26013.51973889  .00000067  00000+0  00000+0 0  9998
2 44334   0.0765 181.3524 0003069  96.9929  28.7384  1.00271543  5284
EUTELSAT 5 WEST B       
1 44624U 19067A   26013.01818807 -.00000024  00000+0  00000+0 0  9993
2 44624   0.0750 325.2826 0002957 332.6354 176.1178  1.00270899 22888
EUTELSAT KONNECT        
1 45027U 20005B   26013.80521668  .00000068  00000+0  00000+0 0  9995
2 45027   0.0698  93.6974 0001101 196.1166 120.5238  1.00270799 22789
